{
  "norad_id": 59611,
  "name": "STARLINK-31448",
  "history": [
    {
      "epoch": "2026-03-28T20:34:17.253696Z",
      "apogee_km": 483.71477375477934,
      "perigee_km": 482.39399441334353,
      "latitude_deg": -3.72393617284982e-05,
      "longitude_deg": 151.3945941632166,
      "height_km": 482.78869504508685,
      "semi_major_axis_km": 6861.191384084062,
      "eccentricity": 9.625e-05,
      "inclination_deg": 43.0016,
      "raan_deg": 286.2381,
      "arg_perigee_deg": 273.664,
      "mean_anomaly_deg": 86.4101,
      "mean_motion_rev_day": 15.27578234
    }
  ]
}