{"fetched_at":"2026-03-29T16:36:15Z","count":15609,"tles":[{"name":"STARLINK-31448","line1":"1 59611U 24080L   26087.85714414  .00002467  00000+0  99144-4 0  9992","line2":"2 59611  43.0016 286.2381 0000962 273.6640  86.4101 15.27578234107500","category":"Starlink"}]}